{
  "links" : {
    "next" : "https://api.nasa.gov/neo/rest/v1/feed?start_date=2003-10-23&end_date=2003-10-23&detailed=true&api_key=t0TVs3DtDT2H8Oy2Zy8m2eVrNsAVKAexjcZXUckd",
    "prev" : "https://api.nasa.gov/neo/rest/v1/feed?start_date=2003-10-21&end_date=2003-10-21&detailed=true&api_key=t0TVs3DtDT2H8Oy2Zy8m2eVrNsAVKAexjcZXUckd",
    "self" : "https://api.nasa.gov/neo/rest/v1/feed?start_date=2003-10-22&end_date=2003-10-22&detailed=true&api_key=t0TVs3DtDT2H8Oy2Zy8m2eVrNsAVKAexjcZXUckd"
  },
  "element_count" : 7,
  "near_earth_objects" : {
    "2003-10-22" : [ {
      "links" : {
        "self" : "https://api.nasa.gov/neo/rest/v1/neo/3278078?api_key=t0TVs3DtDT2H8Oy2Zy8m2eVrNsAVKAexjcZXUckd"
      },
      "neo_reference_id" : "3278078",
      "name" : "(2005 JU81)",
      "nasa_jpl_url" : "http://ssd.jpl.nasa.gov/sbdb.cgi?sstr=3278078",
      "absolute_magnitude_h" : 21.7,
      "estimated_diameter" : {
        "kilometers" : {
          "estimated_diameter_min" : 0.1214940408,
          "estimated_diameter_max" : 0.2716689341
        },
        "meters" : {
          "estimated_diameter_min" : 121.4940407996,
          "estimated_diameter_max" : 271.6689340891
        },
        "miles" : {
          "estimated_diameter_min" : 0.0754928736,
          "estimated_diameter_max" : 0.1688071972
        },
        "feet" : {
          "estimated_diameter_min" : 398.6025088171,
          "estimated_diameter_max" : 891.3023057169
        }
      },
      "is_potentially_hazardous_asteroid" : true,
      "close_approach_data" : [ {
        "close_approach_date" : "2003-10-22",
        "epoch_date_close_approach" : 1066806000000,
        "relative_velocity" : {
          "kilometers_per_second" : "23.0959948345",
          "kilometers_per_hour" : "83145.5814041737",
          "miles_per_hour" : "51663.4308452767"
        },
        "miss_distance" : {
          "astronomical" : "0.4533851028",
          "lunar" : "176.3668060303",
          "kilometers" : "67825448",
          "miles" : "42144780"
        },
        "orbiting_body" : "Earth"
      } ],
      "orbital_data" : {
        "orbit_id" : "15",
        "orbit_determination_date" : "2017-04-06 09:10:58",
        "orbit_uncertainty" : "1",
        "minimum_orbit_intersection" : ".0288226",
        "jupiter_tisserand_invariant" : "5.510",
        "epoch_osculation" : "2458000.5",
        "eccentricity" : ".2774385921707033",
        "semi_major_axis" : "1.116526992364226",
        "inclination" : "17.28822148842633",
        "ascending_node_longitude" : "56.35022654045526",
        "orbital_period" : "430.9255721917104",
        "perihelion_distance" : ".8067593154821059",
        "perihelion_argument" : "72.47395362249664",
        "aphelion_distance" : "1.426294669246347",
        "perihelion_time" : "2458158.767374708257",
        "mean_anomaly" : "227.7816807083689",
        "mean_motion" : ".8354110854202057",
        "equinox" : "J2000"
      }
    }, {
      "links" : {
        "self" : "https://api.nasa.gov/neo/rest/v1/neo/3353630?api_key=t0TVs3DtDT2H8Oy2Zy8m2eVrNsAVKAexjcZXUckd"
      },
      "neo_reference_id" : "3353630",
      "name" : "(2006 UB64)",
      "nasa_jpl_url" : "http://ssd.jpl.nasa.gov/sbdb.cgi?sstr=3353630",
      "absolute_magnitude_h" : 20.6,
      "estimated_diameter" : {
        "kilometers" : {
          "estimated_diameter_min" : 0.2016299194,
          "estimated_diameter_max" : 0.4508582062
        },
        "meters" : {
          "estimated_diameter_min" : 201.6299194428,
          "estimated_diameter_max" : 450.8582061718
        },
        "miles" : {
          "estimated_diameter_min" : 0.1252869847,
          "estimated_diameter_max" : 0.2801502144
        },
        "feet" : {
          "estimated_diameter_min" : 661.5155049046,
          "estimated_diameter_max" : 1479.1936371367
        }
      },
      "is_potentially_hazardous_asteroid" : false,
      "close_approach_data" : [ {
        "close_approach_date" : "2003-10-22",
        "epoch_date_close_approach" : 1066806000000,
        "relative_velocity" : {
          "kilometers_per_second" : "29.7834535604",
          "kilometers_per_hour" : "107220.4328174144",
          "miles_per_hour" : "66622.6072692429"
        },
        "miss_distance" : {
          "astronomical" : "0.3812446695",
          "lunar" : "148.3041687012",
          "kilometers" : "57033388",
          "miles" : "35438904"
        },
        "orbiting_body" : "Earth"
      } ],
      "orbital_data" : {
        "orbit_id" : "16",
        "orbit_determination_date" : "2017-04-06 09:07:47",
        "orbit_uncertainty" : "1",
        "minimum_orbit_intersection" : ".162248",
        "jupiter_tisserand_invariant" : "3.372",
        "epoch_osculation" : "2458000.5",
        "eccentricity" : ".6993607010218096",
        "semi_major_axis" : "2.101238585829244",
        "inclination" : "9.526124278034459",
        "ascending_node_longitude" : "130.3829522392481",
        "orbital_period" : "1112.529351986562",
        "perihelion_distance" : ".6317148954296281",
        "perihelion_argument" : "359.2750803171196",
        "aphelion_distance" : "3.57076227622886",
        "perihelion_time" : "2458547.301153564012",
        "mean_anomaly" : "183.0622725310153",
        "mean_motion" : ".3235869681614912",
        "equinox" : "J2000"
      }
    }, {
      "links" : {
        "self" : "https://api.nasa.gov/neo/rest/v1/neo/3545705?api_key=t0TVs3DtDT2H8Oy2Zy8m2eVrNsAVKAexjcZXUckd"
      },
      "neo_reference_id" : "3545705",
      "name" : "(2010 RF42)",
      "nasa_jpl_url" : "http://ssd.jpl.nasa.gov/sbdb.cgi?sstr=3545705",
      "absolute_magnitude_h" : 25.1,
      "estimated_diameter" : {
        "kilometers" : {
          "estimated_diameter_min" : 0.0253837029,
          "estimated_diameter_max" : 0.0567596853
        },
        "meters" : {
          "estimated_diameter_min" : 25.3837029364,
          "estimated_diameter_max" : 56.7596852866
        },
        "miles" : {
          "estimated_diameter_min" : 0.0157726969,
          "estimated_diameter_max" : 0.0352688224
        },
        "feet" : {
          "estimated_diameter_min" : 83.279867942,
          "estimated_diameter_max" : 186.2194458756
        }
      },
      "is_potentially_hazardous_asteroid" : false,
      "close_approach_data" : [ {
        "close_approach_date" : "2003-10-22",
        "epoch_date_close_approach" : 1066806000000,
        "relative_velocity" : {
          "kilometers_per_second" : "15.8658183888",
          "kilometers_per_hour" : "57116.9461996465",
          "miles_per_hour" : "35490.2491538859"
        },
        "miss_distance" : {
          "astronomical" : "0.3905624505",
          "lunar" : "151.9287872314",
          "kilometers" : "58427312",
          "miles" : "36305048"
        },
        "orbiting_body" : "Earth"
      } ],
      "orbital_data" : {
        "orbit_id" : "7",
        "orbit_determination_date" : "2017-04-06 08:56:48",
        "orbit_uncertainty" : "7",
        "minimum_orbit_intersection" : ".10432",
        "jupiter_tisserand_invariant" : "6.435",
        "epoch_osculation" : "2458000.5",
        "eccentricity" : ".202910881052945",
        "semi_major_axis" : ".9234813508909568",
        "inclination" : "14.05323518604505",
        "ascending_node_longitude" : "169.6828376363623",
        "orbital_period" : "324.1459660369089",
        "perihelion_distance" : ".7360969363457089",
        "perihelion_argument" : "359.549716560939",
        "aphelion_distance" : "1.110865765436205",
        "perihelion_time" : "2457885.975417013180",
        "mean_anomaly" : "127.1922349654067",
        "mean_motion" : "1.110610767122762",
        "equinox" : "J2000"
      }
    } ]
  }
}